GPS BIIA-23 (PRN 18)    
1 22877U 93068A   18165.36373861 -.00000038  00000-0  00000+0 0  9991
2 22877  54.4242  83.6204 0144359  74.9686  85.3282  2.00566152180495
GPS BIIR-2  (PRN 13)    
1 24876U 97035A   18165.03548828  .00000075  00000-0  00000+0 0  9991
2 24876  55.4882 212.8911 0030998  89.4865 270.9619  2.00564907153088
GPS BIIR-3  (PRN 11)    
1 25933U 99055A   18165.36357584 -.00000059  00000-0  00000+0 0  9996
2 25933  51.8857  61.8132 0166942 101.5681  61.1451  2.00567111136910
GPS BIIR-4  (PRN 20)    
1 26360U 00025A   18165.23539528  .00000037  00000-0  00000+0 0  9991
2 26360  53.2018 139.7899 0040809 113.8555   7.7908  2.00425950132591
GPS BIIR-5  (PRN 28)    
1 26407U 00040A   18165.54572675 -.00000056  00000-0  00000+0 0  9996
2 26407  56.4826 330.9978 0196708 272.8877  47.7743  2.00563036131285
GPS BIIR-6  (PRN 14)    
1 26605U 00071A   18165.34352507  .00000074  00000-0  00000+0 0  9997
2 26605  55.0614 210.4717 0101736 248.7572 190.0689  2.00572662128876
GPS BIIR-8  (PRN 16)    
1 27663U 03005A   18165.45985896 -.00000056  00000-0  00000+0 0  9998
2 27663  56.5471 330.7587 0099083  28.6239 349.6879  2.00567049112649
GPS BIIR-9  (PRN 21)    
1 27704U 03010A   18165.37890736 -.00000038  00000-0  00000+0 0  9999
2 27704  54.0947  83.2069 0246248 271.1411   8.1054  2.00561392111449
GPS BIIR-10 (PRN 22)    
1 28129U 03058A   18165.22691153  .00000041  00000-0  00000+0 0  9992
2 28129  53.0150 142.6457 0075811 272.4544  86.6498  2.00549313106136
GPS BIIR-11 (PRN 19)    
1 28190U 04009A   18165.18990476 -.00000060  00000-0  00000+0 0  9994
2 28190  56.1706  31.6203 0096692  68.5304 262.5262  2.00558901104314
GPS BIIR-12 (PRN 23)    
1 28361U 04023A   18165.44725664  .00000074  00000-0  00000+0 0  9998
2 28361  54.0618 205.2104 0127398 225.8366 208.3586  2.00550357102408
GPS BIIR-13 (PRN 02)    
1 28474U 04045A   18165.25044605 -.00000038  00000-0  00000+0 0  9996
2 28474  54.4633  82.8246 0181265 254.1618  37.2752  2.00553874 99763
GPS BIIRM-1 (PRN 17)    
1 28874U 05038A   18165.45184788 -.00000061  00000-0  00000+0 0  9998
2 28874  56.3121  28.9198 0125704 258.4211 283.3467  2.00575866 93169
GPS BIIRM-2 (PRN 31)    
1 29486U 06042A   18165.40187060 -.00000002  00000-0  00000+0 0  9990
2 29486  55.1805 267.7809 0087744 351.2276  79.9435  2.00563168 85887
GPS BIIRM-3 (PRN 12)    
1 29601U 06052A   18165.24744313 -.00000055  00000-0  00000+0 0  9990
2 29601  56.5230 329.6840 0069899  55.8372 304.8170  2.00575345 84796
GPS BIIRM-4 (PRN 15)    
1 32260U 07047A   18165.06843754  .00000078  00000-0  00000+0 0  9993
2 32260  53.1864 201.2504 0101404  37.9549 322.8391  2.00553391 78172
GPS BIIRM-5 (PRN 29)    
1 32384U 07062A   18165.32132240 -.00000060  00000-0  00000+0 0  9999
2 32384  56.3859  29.5338 0005943  63.5793 253.8955  2.00563149 76901
GPS BIIRM-6 (PRN 07)    
1 32711U 08012A   18165.47784154 -.00000002  00000-0  00000+0 0  9998
2 32711  54.9142 267.0574 0118795 216.2788 142.9502  2.00565146 75090
GPS BIIRM-8 (PRN 05)    
1 35752U 09043A   18165.25455956  .00000046  00000-0  00000+0 0  9999
2 35752  54.3207 144.8303 0052793  33.2786 195.5549  2.00557550 64673
GPS BIIF-1  (PRN 25)    
1 36585U 10022A   18165.33245014 -.00000056  00000-0  00000+0 0  9996
2 36585  55.8139 326.2444 0073149  48.4404 339.3131  2.00568379 58920
GPS BIIF-2  (PRN 01)    
1 37753U 11036A   18165.33181640 -.00000033  00000-0  00000+0 0  9999
2 37753  55.6629  86.3446 0077447  35.3704  78.6146  2.00564175 50605
GPS BIIF-3  (PRN 24)    
1 38833U 12053A   18165.16007500  .00000002  00000-0  00000+0 0  9997
2 38833  53.9443 263.6303 0068378  29.4811 330.9452  2.00566644 41672
GPS BIIF-4  (PRN 27)    
1 39166U 13023A   18165.51630584 -.00000062  00000-0  00000+0 0  9995
2 39166  56.0095  25.8142 0058891  22.8467 337.4746  2.00562546 37211
GPS BIIF-5  (PRN 30)    
1 39533U 14008A   18165.01722673 -.00000006  00000-0  00000+0 0  9991
2 39533  54.0892 268.9856 0035119 188.3363 171.6384  2.00556892 31560
GPS BIIF-6  (PRN 06)    
1 39741U 14026A   18165.29608327 -.00000034  00000-0  00000+0 0  9992
2 39741  55.6464  85.8689 0013381 294.6811  65.1774  2.00567276 29856
GPS BIIF-7  (PRN 09)    
1 40105U 14045A   18165.38832540  .00000076  00000-0  00000+0 0  9990
2 40105  54.5876 205.3160 0006898 112.1848 247.9740  2.00571237 28303
GPS BIIF-8  (PRN 03)    
1 40294U 14068A   18165.25980422  .00000049  00000-0  00000+0 0  9993
2 40294  55.0717 146.0946 0013619  16.5212 343.4995  2.00555604 26522
GPS BIIF-9  (PRN 26)    
1 40534U 15013A   18165.39515934 -.00000057  00000-0  00000+0 0  9998
2 40534  54.7553 324.9660 0027669   2.5071 357.4954  2.00563728 23591
GPS BIIF-10  (PRN 08)   
1 40730U 15033A   18165.06090402 -.00000061  00000-0  00000+0 0  9995
2 40730  55.5397  25.3397 0035706 332.6961  27.1762  2.00574727 21349
GPS BIIF-11  (PRN 10)   
1 41019U 15062A   18165.10999120  .00000050  00000-0  00000+0 0  9995
2 41019  55.0768 145.9032 0036694 206.0911 153.7013  2.00564267 19168
GPS BIIF-12  (PRN 32)   
1 41328U 16007A   18165.19761659  .00000078  00000-0  00000+0 0  9991
2 41328  54.8382 205.6129 0023360 218.9925 140.9255  2.00563261 17228
